<?xml version="1.0" encoding="UTF-8"?>
<kml xmlns="http://www.opengis.net/kml/2.2">
<Document>

    <name>Incendios activos España</name>

    <NetworkLink>
        <name>Incendios activos</name>

        <refreshVisibility>1</refreshVisibility>
        <flyToView>0</flyToView>

        <Link>

            <href>
https://andreasolanorosique-lab.github.io/Incendios-Espa-a/incendios_actual.kml
            </href>

            <refreshMode>onInterval</refreshMode>

            <refreshInterval>28800</refreshInterval>

        </Link>

    </NetworkLink>

</Document>
</kml>
